     3.00           N                   E                   RINEX VERSION / TYPE
BRD_USR             ESA                 20190105 121819  UTCPGM / RUN BY / DATE
 GAL   4.8750E+01 -1.9531E-02 -1.1597E-03  0.0000E+00       IONOSPHERIC CORR
GAUT -9.3132257462E-10 0.000000000E+00 518400 2034 GSTB   0 TIME SYSTEM CORR
GPGA -3.2014213502E-09-1.332267630E-15 518400 2034 GSTB   0 TIME SYSTEM CORR
                                                            END OF HEADER
E26 2019 01 05 10 00 00 5.054893321358E-03-4.335731773608E-11 0.000000000000E+00
     2.800000000000E+01-1.999375000000E+02 2.880119968557E-09-2.062808972868E+00
    -9.249895811081E-06 3.246013075113E-04 3.403052687645E-06 5.440611301422E+03
     5.544000000000E+05 4.097819328308E-08-7.362527252070E-01 1.862645149231E-09
     9.783485233887E-01 2.754375000000E+02-2.114883275457E+00-5.619876947575E-09
    -2.635824078367E-10 5.210000000000E+02 2.034000000000E+03 0.000000000000E+00
     3.120000000000E+00 0.000000000000E+00 9.313225746155E-10 9.313225746155E-10
     5.550850000000E+05 0.000000000000E+00 0.000000000000E+00 0.000000000000E+00
E30 2019 01 05 10 00 00 5.213228461798E-03-3.058175934711E-11 0.000000000000E+00
     2.800000000000E+01 2.000625000000E+02 2.319382325869E-09-1.018134666676E+00
     9.292736649513E-06 2.949071349576E-04 1.090392470360E-05 5.440624822617E+03
     5.544000000000E+05 9.126961231232E-08-2.822164455872E+00-6.519258022308E-08
     9.879079791327E-01 1.168437500000E+02 4.979618306576E-01-5.115927384625E-09
     6.000249934494E-11 5.210000000000E+02 2.034000000000E+03 0.000000000000E+00
     3.120000000000E+00 0.000000000000E+00-3.259629011154E-09-3.958120942116E-09
     5.550850000000E+05 0.000000000000E+00 0.000000000000E+00 0.000000000000E+00
E33 2019 01 05 10 00 00 8.478668751195E-04 4.263256414561E-14 0.000000000000E+00
     2.800000000000E+01-1.899062500000E+02 2.785830326729E-09 2.834728439601E+00
    -8.963048458099E-06 3.548957174644E-04 3.308057785034E-06 5.440599185944E+03
     5.544000000000E+05 2.421438694000E-08-7.452290808225E-01-1.490116119385E-08
     9.852270998290E-01 2.809062500000E+02-1.521153546197E+00-5.563446025572E-09
    -2.410814705824E-10 5.210000000000E+02 2.034000000000E+03 0.000000000000E+00
     3.120000000000E+00 4.550000000000E+02-8.381903171539E-09-9.313225746155E-09
     5.550850000000E+05 0.000000000000E+00 0.000000000000E+00 0.000000000000E+00
E36 2019 01 05 10 00 00 7.632845663466E-04-4.519051799434E-12 0.000000000000E+00
     2.800000000000E+01-1.901250000000E+02 2.822260415617E-09 6.075568227918E-01
    -8.866190910339E-06 3.225227119401E-04 4.723668098450E-06 5.440599355698E+03
     5.544000000000E+05-2.421438694000E-08-7.452027600004E-01 2.421438694000E-08
     9.852352950961E-01 2.506562500000E+02-1.648424727324E+00-5.572017811193E-09
    -2.757257707994E-10 5.210000000000E+02 2.034000000000E+03 0.000000000000E+00
     3.120000000000E+00 4.550000000000E+02 1.164153218269E-09 1.396983861923E-09
     5.550850000000E+05 0.000000000000E+00 0.000000000000E+00 0.000000000000E+00
E01 2019 01 05 10 00 00-5.141958245076E-04-8.157030606526E-12 0.000000000000E+00
     2.800000000000E+01 1.598750000000E+02 2.289381076197E-09-2.023669061939E+00
     7.526949048042E-06 1.146432477981E-04 1.118890941143E-05 5.440624755859E+03
     5.544000000000E+05 3.166496753693E-08-2.825581487256E+00 3.911554813385E-08
     9.903570883251E-01 1.146250000000E+02-8.504198454344E-01-5.113070122751E-09
     6.107397254753E-11 2.580000000000E+02 2.034000000000E+03 0.000000000000E+00
     3.120000000000E+00 0.000000000000E+00-4.656612873077E-09 0.000000000000E+00
     5.551000000000E+05 0.000000000000E+00 0.000000000000E+00 0.000000000000E+00
E02 2019 01 05 10 00 00 4.205276491120E-05 1.477928890381E-12 0.000000000000E+00
     2.800000000000E+01 2.007187500000E+02 2.185091017812E-09 5.403723875361E-01
     9.333714842796E-06 2.691551344469E-04 1.033395528793E-05 5.440631259918E+03
     5.544000000000E+05 4.097819328308E-08-2.825614660387E+00 3.539025783539E-08
     9.903653113876E-01 1.326250000000E+02-2.745776836627E-01-5.097712340181E-09
     7.464596644698E-11 2.580000000000E+02 2.034000000000E+03 0.000000000000E+00
     3.120000000000E+00 0.000000000000E+00-6.286427378654E-09 0.000000000000E+00
     5.551000000000E+05 0.000000000000E+00 0.000000000000E+00 0.000000000000E+00
E04 2019 01 05 10 00 00-1.936666085385E-04-7.872813512222E-12 0.000000000000E+00
     2.800000000000E+01 2.409375000000E+01 3.780871774200E-09 2.823212831244E+00
     1.166015863419E-06 8.441763930023E-05 4.319474101067E-06 5.440606283188E+03
     5.544000000000E+05 2.793967723846E-08 1.365343583629E+00 7.264316082001E-08
     9.522090577979E-01 2.445312500000E+02 1.893273446210E+00-5.840957585043E-09
     2.707255625206E-10 2.580000000000E+02 2.034000000000E+03 0.000000000000E+00
     3.120000000000E+00 0.000000000000E+00-7.916241884232E-09 0.000000000000E+00
     5.551000000000E+05 0.000000000000E+00 0.000000000000E+00 0.000000000000E+00
E05 2019 01 05 10 00 00 1.303622848354E-04-6.593836587854E-12 0.000000000000E+00
     2.800000000000E+01 1.643750000000E+01 3.781228931934E-09 1.595621097166E+00
     6.426125764847E-07 1.517417840660E-04 3.982335329056E-06 5.440602886200E+03
     5.544000000000E+05-4.097819328308E-08 1.365278692972E+00-9.313225746155E-09
     9.521799106181E-01 2.483437500000E+02 1.547654080450E+00-5.789526871319E-09
     1.592923494515E-10 2.580000000000E+02 2.034000000000E+03 0.000000000000E+00
     3.120000000000E+00 0.000000000000E+00-1.164153218269E-09 0.000000000000E+00
     5.551000000000E+05 0.000000000000E+00 0.000000000000E+00 0.000000000000E+00
E07 2019 01 05 10 00 00-1.068307901733E-04-7.148059921747E-12 0.000000000000E+00
     2.800000000000E+01 1.940625000000E+01 3.796229556770E-09 6.752583015730E-01
     9.872019290924E-07 1.459941267967E-04 4.312023520470E-06 5.440604047775E+03
     5.544000000000E+05 2.607703208923E-08 1.365294610984E+00-2.235174179077E-08
     9.522105294935E-01 2.405625000000E+02 1.101283135492E-01-5.761668568051E-09
     2.532248335450E-10 2.580000000000E+02 2.034000000000E+03 0.000000000000E+00
     3.120000000000E+00 0.000000000000E+00 0.000000000000E+00 0.000000000000E+00
     5.551000000000E+05 0.000000000000E+00 0.000000000000E+00 0.000000000000E+00
E09 2019 01 05 10 00 00 6.567434465978E-03-1.135447291745E-11 0.000000000000E+00
     2.800000000000E+01 2.415625000000E+01 3.731941164615E-09-2.508482483336E+00
     1.179054379463E-06 2.514122752473E-04 4.015862941742E-06 5.440606088638E+03
     5.544000000000E+05 4.470348358154E-08 1.356646875045E+00-6.332993507385E-08
     9.581813491735E-01 2.514687500000E+02 1.522809404153E-01-5.808099073497E-09
     2.082229590363E-10 2.580000000000E+02 2.034000000000E+03 0.000000000000E+00
     3.120000000000E+00 0.000000000000E+00-3.259629011154E-09 0.000000000000E+00
     5.551000000000E+05 0.000000000000E+00 0.000000000000E+00 0.000000000000E+00
E11 2019 01 05 10 00 00 5.719050299376E-03 1.179500941362E-12 0.000000000000E+00
     2.800000000000E+01-1.902500000000E+02 2.845475668340E-09 9.151786264632E-02
    -8.845701813698E-06 2.362921368331E-04 4.412606358528E-06 5.440607917786E+03
     5.544000000000E+05-1.117587089539E-08-7.398908327716E-01 7.450580596924E-09
     9.819900424783E-01 2.583125000000E+02-3.522592992995E-01-5.566303287446E-09
    -2.632252501025E-10 2.580000000000E+02 2.034000000000E+03 0.000000000000E+00
     3.120000000000E+00 0.000000000000E+00-1.862645149231E-08 0.000000000000E+00
     5.551000000000E+05 0.000000000000E+00 0.000000000000E+00 0.000000000000E+00
E13 2019 01 05 10 00 00 3.813551156782E-04 3.836930773105E-13 0.000000000000E+00
     2.800000000000E+01-2.068437500000E+02 2.810831368123E-09-1.785672560635E+00
    -9.518116712570E-06 3.306479193270E-04 3.509223461151E-06 5.440604623795E+03
     5.544000000000E+05 1.490116119385E-08-7.451927711958E-01 2.980232238770E-08
     9.852308434364E-01 2.782500000000E+02-1.610301074863E+00-5.604162007271E-09
    -2.917978688382E-10 2.580000000000E+02 2.034000000000E+03 0.000000000000E+00
     3.120000000000E+00 5.600000000000E+01-4.656612873077E-09 0.000000000000E+00
     5.551000000000E+05 0.000000000000E+00 0.000000000000E+00 0.000000000000E+00
E19 2019 01 05 10 00 00-9.359500836581E-06 2.273736754432E-13 0.000000000000E+00
     2.800000000000E+01 2.315625000000E+01 3.614436270064E-09-2.927212460160E+00
     1.035630702972E-06 1.400072360411E-04 4.468485713005E-06 5.440604402542E+03
     5.544000000000E+05-4.470348358154E-08 1.362002546450E+00-1.303851604462E-08
     9.579385267161E-01 2.442500000000E+02 2.221163225004E+00-5.694880071757E-09
     2.867976605595E-10 2.580000000000E+02 2.034000000000E+03 0.000000000000E+00
     3.120000000000E+00 0.000000000000E+00-8.847564458847E-09 0.000000000000E+00
     5.551000000000E+05 0.000000000000E+00 0.000000000000E+00 0.000000000000E+00
E21 2019 01 05 10 00 00-5.129007040523E-04-2.060573933704E-12 0.000000000000E+00
     2.800000000000E+01 1.747187500000E+02 2.214735109750E-09-1.672567555507E+00
     8.169561624527E-06 4.700827412307E-05 1.163035631180E-05 5.440639286041E+03
     5.544000000000E+05-6.705522537231E-08-2.828187286678E+00 2.048909664154E-08
     9.899214005998E-01 1.040312500000E+02-3.997587717860E-01-5.078782980268E-09
     1.678641350722E-11 2.580000000000E+02 2.034000000000E+03 0.000000000000E+00
     3.120000000000E+00 0.000000000000E+00-2.328306436539E-09 0.000000000000E+00
     5.551000000000E+05 0.000000000000E+00 0.000000000000E+00 0.000000000000E+00
